COSMOS 2425 (716)       
1 29670U 06062A   21168.72157477  .00000007  00000-0  00000-0 0  9993
2 29670  64.8417 255.4403 0023783 343.3490  13.4234  2.13117039112679
COSMOS 2433 (720)       
1 32275U 07052A   21168.98851310 -.00000037  00000-0  00000+0 0  9996
2 32275  66.0614  16.7670 0000481 253.5180 121.6914  2.13104184106205
COSMOS 2432 (719)       
1 32276U 07052B   21169.19492183 -.00000037  00000-0  00000-0 0  9991
2 32276  66.0766  16.8540 0009813 340.8715 141.9850  2.13103545106207
COSMOS 2434 (721)       
1 32393U 07065A   21169.43675909  .00000008  00000-0  00000-0 0  9998
2 32393  64.4598 253.8730 0002621 105.7644 141.7293  2.13103144104915
COSMOS 2436 (723)       
1 32395U 07065C   21169.45031889  .00000008  00000-0  00000-0 0  9995
2 32395  64.4686 253.9261 0014080 359.0554  34.9428  2.13103055104858
COSMOS 2456 (730)       
1 36111U 09070A   21169.39876569  .00000077  00000-0  00000-0 0  9994
2 36111  64.2778 133.5505 0006117 305.8864  82.9877  2.13099308 89585
COSMOS 2457 (733)       
1 36112U 09070B   21169.44763124  .00000077  00000-0  00000-0 0  9993
2 36112  64.2607 133.4331 0004256 195.6635 355.0926  2.13101542 89589
COSMOS 2459 (731)       
1 36400U 10007A   21169.32791854 -.00000036  00000-0  00000-0 0  9999
2 36400  65.9572  15.6798 0025834 352.1487 140.9429  2.13108469 87926
COSMOS 2461 (735)       
1 36401U 10007B   21169.36493008 -.00000036  00000-0  00000-0 0  9994
2 36401  65.9526  15.6434 0020972  12.7541 149.1860  2.13103811 87938
COSMOS 2460 (732)       
1 36402U 10007C   21169.40310597 -.00000036  00000-0  00000-0 0  9991
2 36402  65.9383  15.5979 0002406  75.7865  60.2499  2.13106778 87939
COSMOS 2464 (736)       
1 37139U 10041C   21169.16870394  .00000009  00000-0  00000-0 0  9995
2 37139  64.0595 253.1399 0027025  10.2623 252.4980  2.13100776 83981
COSMOS 2471 (701K)      
1 37372U 11009A   21169.26274472 -.00000036  00000-0  00000-0 0  9996
2 37372  65.9341  15.5304 0014379 227.0847 311.5453  2.13052393 80204
COSMOS 2476 (744)       
1 37867U 11064A   21169.37067586  .00000080  00000-0  00000-0 0  9992
2 37867  64.5732 134.7654 0022190 241.8667  27.8275  2.13101897 74923
COSMOS 2477 (745)       
1 37868U 11064B   21169.47964170  .00000080  00000-0  00000-0 0  9999
2 37868  64.5804 134.8216 0019714 243.6606 287.9444  2.13101768 74889
COSMOS 2475 (743)       
1 37869U 11064C   21169.40152495  .00000080  00000-0  00000-0 0  9992
2 37869  64.5879 134.8294 0024115 260.9663 168.3948  2.13102046 74896
COSMOS 2485 (747)       
1 39155U 13019A   21171.31106171  .00000062  00000-0  00000+0 0  9996
2 39155  64.7401 135.0480 0022476 237.4402 125.3173  2.13102057 63441
COSMOS 2492 (754)       
1 39620U 14012A   21170.76140750 -.00000035  00000-0  00000+0 0  9997
2 39620  65.8302  15.2869 0012699 333.9834   1.9049  2.13103197 56378
COSMOS 2500 (755)       
1 40001U 14032A   21170.93690617 -.00000035  00000-0  00000+0 0  9995
2 40001  65.7708  15.1682 0005052 183.7283 146.4487  2.13102652 54596
COSMOS 2501 (702K)      
1 40315U 14075A   21169.35404595  .00000008  00000-0  00000-0 0  9992
2 40315  63.7716 253.9414 0017896 209.5497 152.6707  2.13101681 50972
COSMOS 2514 (751)       
1 41330U 16008A   21169.08974469 -.00000037  00000-0  00000-0 0  9993
2 41330  65.5692  15.0109 0008204 203.6661 332.5641  2.13102903 41729
COSMOS 2516 (753)       
1 41554U 16032A   21169.30266758  .00000007  00000-0  00000-0 0  9994
2 41554  63.9973 254.1162 0014208 216.3378  18.4605  2.13107090 39339
COSMOS 2522 (752)       
1 42939U 17055A   21169.50350972  .00000007  00000-0  00000-0 0  9992
2 42939  64.2303 254.3969 0007861 241.6011  10.3246  2.13101941 29090
COSMOS 2527 (756)       
1 43508U 18053A   21169.12618856  .00000082  00000-0  00000-0 0  9993
2 43508  64.9028 135.0463 0009147 243.2480 111.3045  2.13102666 23374
COSMOS 2529 (757)       
1 43687U 18086A   21169.10055637  .00000007  00000-0  00000-0 0  9994
2 43687  64.4442 254.6289 0009747 266.3287 352.0275  2.13102172 20398
COSMOS 2534 (758)       
1 44299U 19030A   21169.36933328  .00000007  00000-0  00000-0 0  9994
2 44299  64.5151 254.4695 0012541 286.5248 312.8666  2.13102097 16043
COSMOS 2544 (759)       
1 44850U 19088A   21170.48381743  .00000072  00000-0  10000-3 0  9999
2 44850  64.8873 134.8619 0013612 266.4261  93.4089  2.13104411 11845
COSMOS 2545 (760)       
1 45358U 20018A   21168.78352097 -.00000040  00000-0  00000-0 0  9990
2 45358  64.9049  15.9331 0006660 249.7650  95.6712  2.13102795  9753
